{
    "links": {
        "self": "http://www.neowsapp.com/rest/v1/neo/3748558?api_key=iIulBulltgU6a56xZRHN4H3l9WmuAYTsLGpBGhQ2"
    },
    "id": "3748558",
    "neo_reference_id": "3748558",
    "name": "(2016 GC1)",
    "designation": "2016 GC1",
    "nasa_jpl_url": "http://ssd.jpl.nasa.gov/sbdb.cgi?sstr=3748558",
    "absolute_magnitude_h": 26.5,
    "estimated_diameter": {
        "kilometers": {
            "estimated_diameter_min": 0.0133215567,
            "estimated_diameter_max": 0.0297879063
        },
        "meters": {
            "estimated_diameter_min": 13.3215566698,
            "estimated_diameter_max": 29.7879062798
        },
        "miles": {
            "estimated_diameter_min": 0.008277629,
            "estimated_diameter_max": 0.0185093411
        },
        "feet": {
            "estimated_diameter_min": 43.7058959846,
            "estimated_diameter_max": 97.7293544391
        }
    },
    "is_potentially_hazardous_asteroid": false,
    "close_approach_data": [
        {
            "close_approach_date": "2007-08-24",
            "close_approach_date_full": "2007-Aug-24 22:00",
            "epoch_date_close_approach": 1187992800000,
            "relative_velocity": {
                "kilometers_per_second": "21.0872839347",
                "kilometers_per_hour": "75914.2221650237",
                "miles_per_hour": "47170.1454335949"
            },
            "miss_distance": {
                "astronomical": "0.4542434529",
                "lunar": "176.7007031781",
                "kilometers": "67953853.015285323",
                "miles": "42224566.2845425374"
            },
            "orbiting_body": "Earth"
        },
        {
            "close_approach_date": "2013-02-28",
            "close_approach_date_full": "2013-Feb-28 13:19",
            "epoch_date_close_approach": 1362057540000,
            "relative_velocity": {
                "kilometers_per_second": "7.9605684691",
                "kilometers_per_hour": "28658.0464886825",
                "miles_per_hour": "17806.9956084817"
            },
            "miss_distance": {
                "astronomical": "0.0364536636",
                "lunar": "14.1804751404",
                "kilometers": "5453390.428256532",
                "miles": "3388579.6815908616"
            },
            "orbiting_body": "Mars"
        },
        {
            "close_approach_date": "2016-04-21",
            "close_approach_date_full": "2016-Apr-21 10:51",
            "epoch_date_close_approach": 1461235860000,
            "relative_velocity": {
                "kilometers_per_second": "8.3547896678",
                "kilometers_per_hour": "30077.2428039696",
                "miles_per_hour": "18688.8290078332"
            },
            "miss_distance": {
                "astronomical": "0.0226661636",
                "lunar": "8.8171376404",
                "kilometers": "3390809.795631532",
                "miles": "2106951.5063658616"
            },
            "orbiting_body": "Earth"
        },
        {
            "close_approach_date": "2019-06-21",
            "close_approach_date_full": "2019-Jun-21 20:02",
            "epoch_date_close_approach": 1561147320000,
            "relative_velocity": {
                "kilometers_per_second": "7.235841024",
                "kilometers_per_hour": "26049.027686559",
                "miles_per_hour": "16185.8527866844"
            },
            "miss_distance": {
                "astronomical": "0.0926336338",
                "lunar": "36.0344835482",
                "kilometers": "13857794.306840006",
                "miles": "8610834.0925878428"
            },
            "orbiting_body": "Mars"
        }
    ],
    "orbital_data": {
        "orbit_id": "10",
        "orbit_determination_date": "2017-04-06 08:26:54",
        "first_observation_date": "2016-04-01",
        "last_observation_date": "2016-04-19",
        "data_arc_in_days": 18,
        "observations_used": 31,
        "orbit_uncertainty": "8",
        "minimum_orbit_intersection": ".00322526",
        "jupiter_tisserand_invariant": "4.541",
        "epoch_osculation": "2457484.5",
        "eccentricity": ".3570303095954996",
        "semi_major_axis": "1.465788240259583",
        "inclination": "1.498049049205408",
        "ascending_node_longitude": "42.2712603830344",
        "orbital_period": "648.1944027724473",
        "perihelion_distance": ".9424574110382613",
        "perihelion_argument": "213.4101046061626",
        "aphelion_distance": "1.989119069480904",
        "perihelion_time": "2457535.966263408444",
        "mean_anomaly": "331.4162067000382",
        "mean_motion": ".5553889364983922",
        "equinox": "J2000",
        "orbit_class": {
            "orbit_class_type": "APO",
            "orbit_class_description": "Near-Earth asteroid orbits which cross the Earth’s orbit similar to that of 1862 Apollo",
            "orbit_class_range": "a (semi-major axis) > 1.0 AU; q (perihelion) < 1.017 AU"
        }
    },
    "is_sentry_object": false
}